{
    "version": 0.6,
    "generator": "Overpass API 0.7.57.1 74a55df1",
    "osm3s": {
      "timestamp_osm_base": "2022-02-13T21:31:24Z",
      "copyright": "The data included in this document is from www.openstreetmap.org. The data is made available under ODbL."
    },
    "elements": [
      {
        "type": "node",
        "id": 54,
        "lat": 55.0282171,
        "lon": 82.9234509,
        "tags": {
          "admin_level": "3",
          "capital": "3",
          "name": "Новосибирск",
          "name:ar": "نوفوسيبيرسك",
          "name:az": "Novosibirsk",
          "name:be": "Новасібірск",
          "name:ca": "Novossibirsk",
          "name:cs": "Novosibirsk",
          "name:da": "Novosibirsk",
          "name:de": "Nowosibirsk",
          "name:en": "Novosibirsk",
          "name:es": "Novosibirsk",
          "name:et": "Novosibirsk",
          "name:fi": "Novosibirsk",
          "name:fr": "Novossibirsk",
          "name:he": "נובוסיבירסק",
          "name:hi": "नोवोसिबिर्स्क",
          "name:hr": "Novosibirsk",
          "name:ja": "ノヴォシビルスク",
          "name:kk": "Новосібір",
          "name:kn": "ನೋವೋಸಿಬಿರ್ಸ್ಕ್",
          "name:ko": "노보시비르스크",
          "name:lt": "Novosibirskas",
          "name:lv": "Novosibirska",
          "name:oc": "Novosibirsk",
          "name:pl": "Nowosybirsk",
          "name:pt": "Novosibirsk",
          "name:ro": "Novosibirsk",
          "name:ru": "Новосибирск",
          "name:sk": "Novosibirsk",
          "name:sl": "Novosibirsk",
          "name:uk": "Новосибірськ",
          "name:uz": "Novosibirsk",
          "name:zh-Hans": "新西伯利亚",
          "name:zh-Hant": "新西伯利亞",
          "official_status": "ru:город",
          "old_name": "Ново-Николаевск",
          "old_name:en": "Novo-Nikolayevsk",
          "old_name:fr": "Novonikolaïevsk",
          "old_name:fr:1893-1925": "Novonikolaïevsk",
          "old_name:ru": "Ново-Николаевск",
          "place": "city",
          "population": "1620162",
          "population:date": "2021-01-01",
          "source:name:oc": "Lo Congrès",
          "source:population": "https://novosibstat.gks.ru/storage/mediabank/p54_PRESS79_2020.pdf",
          "start_date": "1893",
          "wikidata": "Q883",
          "wikipedia": "ru:Новосибирск"
        }
      },
      {
        "type": "node",
        "id": 107775,
        "lat": 51.5073219,
        "lon": -0.1276474,
        "tags": {
          "admin_level": "2",
          "alt_name:gl": "London",
          "capital": "yes",
          "ele": "15",
          "is_capital": "country",
          "is_in:country_code": "GB",
          "is_in:iso_3166_2": "GB-ENG",
          "name": "London",
          "name:ab": "Лондан",
          "name:af": "Londen",
          "name:am": "ለንደን",
          "name:an": "Londres",
          "name:ang": "Lunden",
          "name:ar": "لندن",
          "name:arc": "ܠܘܢܕܘܢ",
          "name:arz": "لندن",
          "name:ast": "Londres",
          "name:ba": "Лондон",
          "name:bat-smg": "Londons",
          "name:bcl": "Londres",
          "name:be": "Лондан",
          "name:be-tarask": "Лёндан",
          "name:bg": "Лондон",
          "name:bn": "লন্ডন",
          "name:bo": "ལོན་ཊོན།",
          "name:br": "Londrez",
          "name:ca": "Londres",
          "name:cdo": "Lùng-dŭng",
          "name:ckb": "لەندەن",
          "name:co": "Londra",
          "name:cs": "Londýn",
          "name:cu": "Лондонъ",
          "name:cv": "Лондон",
          "name:cy": "Llundain",
          "name:de": "London",
          "name:diq": "Londra",
          "name:el": "Λονδίνο",
          "name:eml": "Lòndra",
          "name:en": "London",
          "name:eo": "Londono",
          "name:es": "Londres",
          "name:et": "London",
          "name:eu": "Londres",
          "name:ext": "Londri",
          "name:fa": "لندن",
          "name:fi": "Lontoo",
          "name:fr": "Londres",
          "name:frp": "Londres",
          "name:fy": "Londen",
          "name:ga": "Londain",
          "name:gan": "倫敦",
          "name:gd": "Lunnainn",
          "name:gl": "Londres",
          "name:gn": "Londye",
          "name:gu": "લંડન",
          "name:gv": "Lunnin",
          "name:haw": "Lākana",
          "name:he": "לונדון",
          "name:hi": "लंदन",
          "name:ht": "Lonn",
          "name:hu": "London",
          "name:hy": "Լոնդոն",
          "name:ilo": "Londres",
          "name:is": "Lundúnir",
          "name:it": "Londra",
          "name:ja": "ロンドン",
          "name:jbo": "london",
          "name:ka": "ლონდონი",
          "name:kk": "Лондон",
          "name:kn": "ಲಂಡನ್",
          "name:ko": "런던",
          "name:koi": "Лондон",
          "name:krc": "Лондон",
          "name:ku": "London",
          "name:kv": "Лондон",
          "name:kw": "Loundres",
          "name:ky": "Лондон",
          "name:lad": "Londra",
          "name:lbe": "Лондон",
          "name:lez": "Лондон",
          "name:li": "Londe",
          "name:lij": "Londra",
          "name:lmo": "Lundra",
          "name:ln": "Londoni",
          "name:lo": "ລອນດອນ",
          "name:lt": "Londonas",
          "name:lv": "Londona",
          "name:lzh": "倫敦",
          "name:mhr": "Лондон",
          "name:mi": "Rānana",
          "name:mk": "Лондон",
          "name:ml": "ലണ്ടൻ",
          "name:mn": "Лондон",
          "name:mr": "लंडन",
          "name:mrj": "Лондон",
          "name:mt": "Londra",
          "name:mwl": "Londres",
          "name:my": "လန်ဒန်မြို့",
          "name:mzn": "لندن",
          "name:nah": "Londres",
          "name:nap": "Londra",
          "name:nds-nl": "Londen",
          "name:ne": "लण्डन",
          "name:new": "लण्डन",
          "name:nl": "Londen",
          "name:no": "London",
          "name:nrm": "Londres",
          "name:oc": "Londres",
          "name:or": "ଲଣ୍ଡନ",
          "name:os": "Лондон",
          "name:pcd": "Londe",
          "name:pl": "Londyn",
          "name:pms": "Londra",
          "name:pnb": "لندن",
          "name:pnt": "Λονδίνο",
          "name:ps": "لندن",
          "name:pt": "Londres",
          "name:rm": "Londra",
          "name:ro": "Londra",
          "name:roa-rup": "Londra",
          "name:roa-tara": "Londre",
          "name:ru": "Лондон",
          "name:rue": "Лондон",
          "name:sa": "लन्डन्",
          "name:sah": "Лондон",
          "name:sc": "Londra",
          "name:scn": "Londra",
          "name:sco": "Lunnon",
          "name:si": "ලන්ඩන්",
          "name:sk": "Londýn",
          "name:sl": "London",
          "name:sq": "Londra",
          "name:sr": "Лондон",
          "name:sv": "London",
          "name:szl": "Lōndōn",
          "name:ta": "இலண்டன்",
          "name:te": "లండన్",
          "name:tet": "Londres",
          "name:tg": "Лондон",
          "name:th": "ลอนดอน",
          "name:tl": "Londres",
          "name:tpi": "Landen",
          "name:tr": "Londra",
          "name:tt": "Лондон",
          "name:tzl": "Londra",
          "name:udm": "Лондон",
          "name:uk": "Лондон",
          "name:ur": "لندن",
          "name:vec": "Łondra",
          "name:vi": "Luân Đôn",
          "name:vls": "Londn",
          "name:wo": "Londar",
          "name:wuu": "伦敦",
          "name:xmf": "ლონდონი",
          "name:yi": "לאנדאן",
          "name:yo": "Lọndọnu",
          "name:yue": "倫敦",
          "name:zea": "Londen",
          "name:zh": "倫敦",
          "name:zh-Hans": "伦敦",
          "name:zh_pinyin": "Lúndūn",
          "name:zu": "ILondon",
          "note": "Centre of London officially at the former location of the Charing Cross, now the Charles I statue, near Trafalgar Square.",
          "old_name:ang:597-886": "Lundenwic",
          "old_name:ang:886-1066": "Lundenburh",
          "old_name:en:886-1066": "Lundenburg",
          "old_name:la:47-500": "Londinium",
          "place": "city",
          "population": "8908081",
          "website": "https://www.london.gov.uk/",
          "wikidata": "Q84",
          "wikimedia_commons": "Category:London",
          "wikipedia": "en:London"
        }
      },
      {
        "type": "node",
        "id": 204648,
        "lat": -41.2887953,
        "lon": 174.7772114,
        "tags": {
          "admin_level": "2",
          "capital": "yes",
          "capital_ISO3166-1": "yes",
          "ele": "1",
          "int_name": "Wellington",
          "is_in:country": "New Zealand",
          "is_in:country_code": "NZ",
          "is_in:island": "North Island",
          "is_in:ocean": "Pacific",
          "loc_name": "Welli",
          "name": "Wellington",
          "name:af": "Wellington",
          "name:am": "ዌሊንግተን",
          "name:ang": "Weolingtūn",
          "name:ar": "ويلينغتون",
          "name:arz": "ويلينجتون",
          "name:az": "Vellinqton",
          "name:be": "Велінгтан",
          "name:be-tarask": "Вэлінгтан",
          "name:bg": "Уелингтън",
          "name:bn": "ওয়েলিংটন",
          "name:bo": "ཝེ་ལིང་ཐོན།",
          "name:bpy": "ৱেলিংটন",
          "name:bs": "Wellington",
          "name:ckb": "وێڵینگتۆن",
          "name:cv": "Веллингтон",
          "name:de": "Wellington",
          "name:el": "Ουέλλινγκτον",
          "name:en": "Wellington",
          "name:eo": "Velingtono",
          "name:es": "Wellington",
          "name:etymology": "Arthur Wellesley, 1st Duke of Wellington",
          "name:etymology:wikidata": "Q131691",
          "name:fa": "ولینگتون",
          "name:fr": "Wellington",
          "name:gu": "વેલિંગ્ટન",
          "name:he": "ולינגטון",
          "name:hi": "वेलिंग्टन",
          "name:ht": "Welintòn",
          "name:hu": "Wellington",
          "name:hy": "Վելինգտոն",
          "name:is": "Wellington",
          "name:ja": "ウェリントン",
          "name:ka": "ველინგტონი",
          "name:kn": "ವೆಲ್ಲಿಂಗ್ಟನ್",
          "name:ko": "웰링턴",
          "name:ku": "Wellington",
          "name:la": "Vellingtonia",
          "name:lt": "Velingtonas",
          "name:lv": "Velingtona",
          "name:mi": "Te Whanganui-a-Tara",
          "name:mk": "Велингтон",
          "name:mn": "Веллингтон",
          "name:mr": "वेलिंग्टन",
          "name:my": "ဝယ်လင်တန်မြို့",
          "name:new": "वेलिंगटन",
          "name:oc": "Wellington",
          "name:os": "Веллингтон",
          "name:pl": "Wellington",
          "name:ru": "Веллингтон",
          "name:sm": "Ueligitone",
          "name:sr": "Велингтон",
          "name:sv": "Wellington",
          "name:ta": "வெலிங்டன், நியூசிலாந்து",
          "name:th": "เวลลิงตัน",
          "name:ty": "Whanga-nui-a-Tara",
          "name:ug": "ۋېللىنگتون",
          "name:uk": "Веллінгтон",
          "name:ur": "ویلنگٹن",
          "name:xmf": "ველინგთონი",
          "name:yi": "װעלינגטאן",
          "name:yue": "威靈頓",
          "name:zh": "惠灵顿 / 惠靈頓 / 威靈頓",
          "name:zh-Hans": "惠灵顿",
          "name:zh-Hant": "威靈頓",
          "place": "city",
          "population": "215900",
          "source:name:oc": "Lo Congrès",
          "source:population": "Statistics NZ 2021 via Wikipedia",
          "wikidata": "Q23661",
          "wikipedia": "en:Wellington"
        }
      },
      {
        "type": "node",
        "id": 273316,
        "lat": -26.9117879,
        "lon": -48.6669852,
        "tags": {
          "is_in": "Santa Catarina, Brazil",
          "is_in:continent": "South America",
          "is_in:country": "Brazil",
          "is_in:country_code": "BR",
          "name": "Itajaí",
          "place": "city",
          "population": "205271",
          "ref:LOCODE": "BRITJ",
          "wikidata": "Q842713"
        }
      }
      
    ]
}